[{"OBJECT_NAME":"ONEWEB-0034","OBJECT_ID":"2020-020AG","EPOCH":"2025-10-06T19:41:07.574784","MEAN_MOTION":13.11414214,"ECCENTRICITY":0.00015978,"INCLINATION":87.8809,"RA_OF_ASC_NODE":71.5152,"ARG_OF_PERICENTER":94.2569,"MEAN_ANOMALY":265.8742,"EPHEMERIS_TYPE":0,"CLASSIFICATION_TYPE":"U","NORAD_CAT_ID":45454,"ELEMENT_SET_NO":999,"REV_AT_EPOCH":26938,"BSTAR":-0.00033823131,"MEAN_MOTION_DOT":-1.07e-6,"MEAN_MOTION_DDOT":0},{"OBJECT_NAME":"ONEWEB-0060","OBJECT_ID":"2020-020AH","EPOCH":"2025-10-07T04:08:58.266240","MEAN_MOTION":13.11418197,"ECCENTRICITY":4.352e-5,"INCLINATION":87.8802,"RA_OF_ASC_NODE":71.4691,"ARG_OF_PERICENTER":112.2858,"MEAN_ANOMALY":247.8316,"EPHEMERIS_TYPE":0,"CLASSIFICATION_TYPE":"U","NORAD_CAT_ID":45455,"ELEMENT_SET_NO":999,"REV_AT_EPOCH":26938,"BSTAR":0.00080926116,"MEAN_MOTION_DOT":3.0e-6,"MEAN_MOTION_DDOT":0},{"OBJECT_NAME":"ONEWEB-0086","OBJECT_ID":"2020-020AJ","EPOCH":"2025-10-06T16:39:13.665024","MEAN_MOTION":13.11417749,"ECCENTRICITY":0.00012916,"INCLINATION":87.881,"RA_OF_ASC_NODE":71.5374,"ARG_OF_PERICENTER":121.3782,"MEAN_ANOMALY":238.7473,"EPHEMERIS_TYPE":0,"CLASSIFICATION_TYPE":"U","NORAD_CAT_ID":45456,"ELEMENT_SET_NO":999,"REV_AT_EPOCH":26938,"BSTAR":-0.00076398088,"MEAN_MOTION_DOT":-2.58e-6,"MEAN_MOTION_DDOT":0},{"OBJECT_NAME":"ONEWEB-0088","OBJECT_ID":"2020-020AK","EPOCH":"2025-10-07T03:06:41.799744","MEAN_MOTION":13.11413535,"ECCENTRICITY":0.00015714,"INCLINATION":87.8817,"RA_OF_ASC_NODE":71.3988,"ARG_OF_PERICENTER":90.3313,"MEAN_ANOMALY":269.7995,"EPHEMERIS_TYPE":0,"CLASSIFICATION_TYPE":"U","NORAD_CAT_ID":45457,"ELEMENT_SET_NO":999,"REV_AT_EPOCH":26937,"BSTAR":-0.00033718052,"MEAN_MOTION_DOT":-1.07e-6,"MEAN_MOTION_DDOT":0},{"OBJECT_NAME":"ONEWEB-0102","OBJECT_ID":"2020-100A","EPOCH":"2025-10-07T06:08:47.561856","MEAN_MOTION":13.12441151,"ECCENTRICITY":0.00018442,"INCLINATION":87.8949,"RA_OF_ASC_NODE":40.9309,"ARG_OF_PERICENTER":102.4127,"MEAN_ANOMALY":257.7208,"EPHEMERIS_TYPE":0,"CLASSIFICATION_TYPE":"U","NORAD_CAT_ID":47258,"ELEMENT_SET_NO":999,"REV_AT_EPOCH":23155,"BSTAR":0.0010721859,"MEAN_MOTION_DOT":3.98e-6,"MEAN_MOTION_DDOT":0},{"OBJECT_NAME":"ONEWEB-0109","OBJECT_ID":"2020-100B","EPOCH":"2025-10-07T06:20:28.627872","MEAN_MOTION":13.12442125,"ECCENTRICITY":0.00017831,"INCLINATION":87.8949,"RA_OF_ASC_NODE":40.8974,"ARG_OF_PERICENTER":103.2268,"MEAN_ANOMALY":256.9059,"EPHEMERIS_TYPE":0,"CLASSIFICATION_TYPE":"U","NORAD_CAT_ID":47259,"ELEMENT_SET_NO":999,"REV_AT_EPOCH":23138,"BSTAR":0.00078805284,"MEAN_MOTION_DOT":2.96e-6,"MEAN_MOTION_DDOT":0},{"OBJECT_NAME":"ONEWEB-0110","OBJECT_ID":"2020-100C","EPOCH":"2025-10-07T06:57:49.891392","MEAN_MOTION":13.12443793,"ECCENTRICITY":0.00015006,"INCLINATION":87.8949,"RA_OF_ASC_NODE":40.8763,"ARG_OF_PERICENTER":107.3018,"MEAN_ANOMALY":252.8275,"EPHEMERIS_TYPE":0,"CLASSIFICATION_TYPE":"U","NORAD_CAT_ID":47260,"ELEMENT_SET_NO":999,"REV_AT_EPOCH":23155,"BSTAR":-0.00091672253,"MEAN_MOTION_DOT":-3.17e-6,"MEAN_MOTION_DDOT":0},{"OBJECT_NAME":"ONEWEB-0111","OBJECT_ID":"2020-100D","EPOCH":"2025-10-07T07:42:13.958496","MEAN_MOTION":13.1244264,"ECCENTRICITY":0.00017264,"INCLINATION":87.8948,"RA_OF_ASC_NODE":40.8874,"ARG_OF_PERICENTER":100.3359,"MEAN_ANOMALY":259.7965,"EPHEMERIS_TYPE":0,"CLASSIFICATION_TYPE":"U","NORAD_CAT_ID":47261,"ELEMENT_SET_NO":999,"REV_AT_EPOCH":23139,"BSTAR":0.0013618126,"MEAN_MOTION_DOT":5.03e-6,"MEAN_MOTION_DDOT":0},{"OBJECT_NAME":"ONEWEB-0114","OBJECT_ID":"2020-100E","EPOCH":"2025-10-07T06:36:49.197024","MEAN_MOTION":13.12442328,"ECCENTRICITY":0.00020098,"INCLINATION":87.895,"RA_OF_ASC_NODE":40.8905,"ARG_OF_PERICENTER":101.3741,"MEAN_ANOMALY":258.7613,"EPHEMERIS_TYPE":0,"CLASSIFICATION_TYPE":"U","NORAD_CAT_ID":47262,"ELEMENT_SET_NO":999,"REV_AT_EPOCH":23134,"BSTAR":-0.00041623571,"MEAN_MOTION_DOT":-1.37e-6,"MEAN_MOTION_DDOT":0},{"OBJECT_NAME":"ONEWEB-0117","OBJECT_ID":"2020-100F","EPOCH":"2025-10-07T06:25:08.710752","MEAN_MOTION":13.12442532,"ECCENTRICITY":0.00016855,"INCLINATION":87.8952,"RA_OF_ASC_NODE":40.8902,"ARG_OF_PERICENTER":100.7284,"MEAN_ANOMALY":259.4035,"EPHEMERIS_TYPE":0,"CLASSIFICATION_TYPE":"U","NORAD_CAT_ID":47263,"ELEMENT_SET_NO":999,"REV_AT_EPOCH":23135,"BSTAR":0.00062525211,"MEAN_MOTION_DOT":2.38e-6,"MEAN_MOTION_DDOT":0},{"OBJECT_NAME":"ONEWEB-0118","OBJECT_ID":"2020-100G","EPOCH":"2025-10-07T07:11:51.270144","MEAN_MOTION":13.12445211,"ECCENTRICITY":0.00019793,"INCLINATION":87.8947,"RA_OF_ASC_NODE":40.8828,"ARG_OF_PERICENTER":94.1053,"MEAN_ANOMALY":266.0302,"EPHEMERIS_TYPE":0,"CLASSIFICATION_TYPE":"U","NORAD_CAT_ID":47264,"ELEMENT_SET_NO":999,"REV_AT_EPOCH":23155,"BSTAR":-0.00072240172,"MEAN_MOTION_DOT":-2.47e-6,"MEAN_MOTION_DDOT":0},{"OBJECT_NAME":"ONEWEB-0119","OBJECT_ID":"2020-100H","EPOCH":"2025-10-07T07:51:34.499232","MEAN_MOTION":13.12442846,"ECCENTRICITY":0.00017267,"INCLINATION":87.8946,"RA_OF_ASC_NODE":40.9145,"ARG_OF_PERICENTER":101.3209,"MEAN_ANOMALY":258.8114,"EPHEMERIS_TYPE":0,"CLASSIFICATION_TYPE":"U","NORAD_CAT_ID":47265,"ELEMENT_SET_NO":999,"REV_AT_EPOCH":23153,"BSTAR":0.0013755049,"MEAN_MOTION_DOT":5.08e-6,"MEAN_MOTION_DDOT":0},{"OBJECT_NAME":"ONEWEB-0120","OBJECT_ID":"2020-100J","EPOCH":"2025-10-07T06:34:41.068416","MEAN_MOTION":13.12442215,"ECCENTRICITY":0.00018263,"INCLINATION":87.8954,"RA_OF_ASC_NODE":40.9272,"ARG_OF_PERICENTER":101.4311,"MEAN_ANOMALY":258.7022,"EPHEMERIS_TYPE":0,"CLASSIFICATION_TYPE":"U","NORAD_CAT_ID":47266,"ELEMENT_SET_NO":999,"REV_AT_EPOCH":23155,"BSTAR":-0.00017432466,"MEAN_MOTION_DOT":-5.0e-7,"MEAN_MOTION_DDOT":0},{"OBJECT_NAME":"ONEWEB-0121","OBJECT_ID":"2020-100K","EPOCH":"2025-10-07T06:18:09.240480","MEAN_MOTION":13.12442444,"ECCENTRICITY":0.00015773,"INCLINATION":87.8948,"RA_OF_ASC_NODE":40.8953,"ARG_OF_PERICENTER":103.4196,"MEAN_ANOMALY":256.7108,"EPHEMERIS_TYPE":0,"CLASSIFICATION_TYPE":"U","NORAD_CAT_ID":47267,"ELEMENT_SET_NO":999,"REV_AT_EPOCH":23146,"BSTAR":0.00085568702,"MEAN_MOTION_DOT":3.21e-6,"MEAN_MOTION_DDOT":0},{"OBJECT_NAME":"ONEWEB-0122","OBJECT_ID":"2020-100L","EPOCH":"2025-10-07T06:10:55.661952","MEAN_MOTION":13.12441444,"ECCENTRICITY":0.00017561,"INCLINATION":87.8949,"RA_OF_ASC_NODE":40.899,"ARG_OF_PERICENTER":105.4464,"MEAN_ANOMALY":254.6858,"EPHEMERIS_TYPE":0,"CLASSIFICATION_TYPE":"U","NORAD_CAT_ID":47268,"ELEMENT_SET_NO":999,"REV_AT_EPOCH":23137,"BSTAR":0.0011388086,"MEAN_MOTION_DOT":4.22e-6,"MEAN_MOTION_DDOT":0},{"OBJECT_NAME":"ONEWEB-0123","OBJECT_ID":"2020-100M","EPOCH":"2025-10-07T07:53:54.847392","MEAN_MOTION":13.12442507,"ECCENTRICITY":0.00017156,"INCLINATION":87.8944,"RA_OF_ASC_NODE":40.9121,"ARG_OF_PERICENTER":95.0772,"MEAN_ANOMALY":265.0552,"EPHEMERIS_TYPE":0,"CLASSIFICATION_TYPE":"U","NORAD_CAT_ID":47269,"ELEMENT_SET_NO":999,"REV_AT_EPOCH":23152,"BSTAR":0.0013593717,"MEAN_MOTION_DOT":5.02e-6,"MEAN_MOTION_DDOT":0}]
