ONEWEB-0034             
1 45454U 20020AG  25279.82022656 -.00000107  00000+0 -33823-3 0  9993
2 45454  87.8809  71.5152 0001597  94.2569 265.8742 13.11414214269386
ONEWEB-0060             
1 45455U 20020AH  25280.17289660  .00000300  00000+0  80926-3 0  9993
2 45455  87.8802  71.4691 0000435 112.2858 247.8316 13.11418197269380
ONEWEB-0086             
1 45456U 20020AJ  25279.69390816 -.00000258  00000+0 -76398-3 0  9997
2 45456  87.8810  71.5374 0001291 121.3782 238.7473 13.11417749269382
ONEWEB-0088             
1 45457U 20020AK  25280.12965046 -.00000107  00000+0 -33718-3 0  9993
2 45457  87.8817  71.3988 0001571  90.3313 269.7995 13.11413535269376
ONEWEB-0102             
1 47258U 20100A   25280.25610604  .00000398  00000+0  10722-2 0  9993
2 47258  87.8949  40.9309 0001844 102.4127 257.7208 13.12441151231552
ONEWEB-0109             
1 47259U 20100B   25280.26422023  .00000296  00000+0  78805-3 0  9995
2 47259  87.8949  40.8974 0001783 103.2268 256.9059 13.12442125231385
ONEWEB-0110             
1 47260U 20100C   25280.29016078 -.00000317  00000+0 -91672-3 0  9992
2 47260  87.8949  40.8763 0001500 107.3018 252.8275 13.12443793231554
ONEWEB-0111             
1 47261U 20100D   25280.32099489  .00000503  00000+0  13618-2 0  9992
2 47261  87.8948  40.8874 0001726 100.3359 259.7965 13.12442640231392
ONEWEB-0114             
1 47262U 20100E   25280.27556941 -.00000137  00000+0 -41624-3 0  9992
2 47262  87.8950  40.8905 0002009 101.3741 258.7613 13.12442328231349
ONEWEB-0117             
1 47263U 20100F   25280.26746193  .00000238  00000+0  62525-3 0  9995
2 47263  87.8952  40.8902 0001685 100.7284 259.4035 13.12442532231357
ONEWEB-0118             
1 47264U 20100G   25280.29989896 -.00000247  00000+0 -72240-3 0  9995
2 47264  87.8947  40.8828 0001979  94.1053 266.0302 13.12445211231555
ONEWEB-0119             
1 47265U 20100H   25280.32748263  .00000508  00000+0  13755-2 0  9994
2 47265  87.8946  40.9145 0001726 101.3209 258.8114 13.12442846231531
ONEWEB-0120             
1 47266U 20100J   25280.27408644 -.00000050  00000+0 -17432-3 0  9996
2 47266  87.8954  40.9272 0001826 101.4311 258.7022 13.12442215231557
ONEWEB-0121             
1 47267U 20100K   25280.26260695  .00000321  00000+0  85569-3 0  9993
2 47267  87.8948  40.8953 0001577 103.4196 256.7108 13.12442444231469
ONEWEB-0122             
1 47268U 20100L   25280.25758868  .00000422  00000+0  11388-2 0  9996
2 47268  87.8949  40.8990 0001756 105.4464 254.6858 13.12441444231379
ONEWEB-0123             
1 47269U 20100M   25280.32910703  .00000502  00000+0  13594-2 0  9993
2 47269  87.8944  40.9121 0001715  95.0772 265.0552 13.12442507231528
